{"type": "FeatureCollection", "features": [ {"type": "Feature", "properties": {"norad_id": 30396, "name": "FENGYUN 1C DEB", "group": "fengyun-1c-debris", "lat": -33.09643242863893, "lon": -2.678473187858995, "alt_km": 1038.4372722496228, "timestamp": "2025-12-13T03:42:11.549031+00:00", "meta": {"OBJECT_NAME": "FENGYUN 1C DEB", "OBJECT_ID": "1999-025ADK", "EPOCH": "2025-12-12T00:29:21.223392", "MEAN_MOTION": 13.87168446, "ECCENTRICITY": 0.0134987, "INCLINATION": 98.2241, "RA_OF_ASC_NODE": 350.9141, "ARG_OF_PERICENTER": 131.6977, "MEAN_ANOMALY": 295.9818, "EPHEMERIS_TYPE": 0, "CLASSIFICATION_TYPE": "U", "NORAD_CAT_ID": 30396, "ELEMENT_SET_NO": 999, "REV_AT_EPOCH": 95569, "BSTAR": 0.000156, "MEAN_MOTION_DOT": 1.62e-06, "MEAN_MOTION_DDOT": 0}, "tle": {"line1": "1 30396U 99025ADK 25346.02038453  .00000162  00000+0  15600-3 0  9994", "line2": "2 30396  98.2241 350.9141 0134987 131.6977 295.9818 13.87168446955692"}}, "geometry": {"type": "Point", "coordinates": [-2.678473187858995, -33.09643242863893]}}, {"type": "Feature", "properties": {"norad_id": 30397, "name": "FENGYUN 1C DEB", "group": "fengyun-1c-debris", "lat": -50.33825321834116, "lon": -54.94895094264658, "alt_km": 987.8034925944039, "timestamp": "2025-12-13T03:42:11.549041+00:00", "meta": {"OBJECT_NAME": "FENGYUN 1C DEB", "OBJECT_ID": "1999-025ADL", "EPOCH": "2025-12-11T23:42:35.525952", "MEAN_MOTION": 13.98584261, "ECCENTRICITY": 0.0149657, "INCLINATION": 98.4055, "RA_OF_ASC_NODE": 134.2541, "ARG_OF_PERICENTER": 94.687, "MEAN_ANOMALY": 25.8129, "EPHEMERIS_TYPE": 0, "CLASSIFICATION_TYPE": "U", "NORAD_CAT_ID": 30397, "ELEMENT_SET_NO": 999, "REV_AT_EPOCH": 95754, "BSTAR": 0.0015808, "MEAN_MOTION_DOT": 2.458e-05, "MEAN_MOTION_DDOT": 0}, "tle": {"line1": "1 30397U 99025ADL 25345.98791118  .00002458  00000+0  15808-2 0  9992", "line2": "2 30397  98.4055 134.2541 0149657  94.6870  25.8129 13.98584261957545"}}, "geometry": {"type": "Point", "coordinates": [-54.94895094264658, -50.33825321834116]}}, {"type": "Feature", "properties": {"norad_id": 30398, "name": "FENGYUN 1C DEB", "group": "fengyun-1c-debris", "lat": -72.73107553863595, "lon": 30.25111946660577, "alt_km": 876.7054474435317, "timestamp": "2025-12-13T03:42:11.549051+00:00", "meta": {"OBJECT_NAME": "FENGYUN 1C DEB", "OBJECT_ID": "1999-025ADM", "EPOCH": "2025-12-11T22:53:36.154752", "MEAN_MOTION": 13.78696635, "ECCENTRICITY": 0.0172817, "INCLINATION": 99.714, "RA_OF_ASC_NODE": 242.4573, "ARG_OF_PERICENTER": 298.1179, "MEAN_ANOMALY": 123.8729, "EPHEMERIS_TYPE": 0, "CLASSIFICATION_TYPE": "U", "NORAD_CAT_ID": 30398, "ELEMENT_SET_NO": 999, "REV_AT_EPOCH": 94746, "BSTAR": 0.0007272, "MEAN_MOTION_DOT": 7.77e-06, "MEAN_MOTION_DDOT": 0}, "tle": {"line1": "1 30398U 99025ADM 25345.95389068  .00000777  00000+0  72720-3 0  9996", "line2": "2 30398  99.7140 242.4573 0172817 298.1179 123.8729 13.78696635947461"}}, "geometry": {"type": "Point", "coordinates": [30.25111946660577, -72.73107553863595]}}, {"type": "Feature", "properties": {"norad_id": 30400, "name": "FENGYUN 1C DEB", "group": "fengyun-1c-debris", "lat": 49.36168632295621, "lon": 105.51365117812652, "alt_km": 1003.2794141913737, "timestamp": "2025-12-13T03:42:11.549061+00:00", "meta": {"OBJECT_NAME": "FENGYUN 1C DEB", "OBJECT_ID": "1999-025ADP", "EPOCH": "2025-12-11T18:49:45.056928", "MEAN_MOTION": 14.09949187, "ECCENTRICITY": 0.02274561, "INCLINATION": 99.1548, "RA_OF_ASC_NODE": 273.2897, "ARG_OF_PERICENTER": 338.5894, "MEAN_ANOMALY": 41.1115, "EPHEMERIS_TYPE": 0, "CLASSIFICATION_TYPE": "U", "NORAD_CAT_ID": 30400, "ELEMENT_SET_NO": 999, "REV_AT_EPOCH": 95501, "BSTAR": 0.0069444662, "MEAN_MOTION_DOT": 0.00015551, "MEAN_MOTION_DDOT": 0}, "tle": {"line1": "1 30400U 99025ADP 25345.78454927  .00015551  00000+0  69445-2 0  9993", "line2": "2 30400  99.1548 273.2897 0227456 338.5894  41.1115 14.09949187955014"}}, "geometry": {"type": "Point", "coordinates": [105.51365117812652, 49.36168632295621]}}, {"type": "Feature", "properties": {"norad_id": 30401, "name": "FENGYUN 1C DEB", "group": "fengyun-1c-debris", "lat": 0.9591401597020967, "lon": 44.204802106977844, "alt_km": 753.7332829892785, "timestamp": "2025-12-13T03:42:11.549071+00:00", "meta": {"OBJECT_NAME": "FENGYUN 1C DEB", "OBJECT_ID": "1999-025ADQ", "EPOCH": "2025-12-12T05:00:57.296736", "MEAN_MOTION": 14.27990865, "ECCENTRICITY": 0.010786, "INCLINATION": 98.9472, "RA_OF_ASC_NODE": 223.0855, "ARG_OF_PERICENTER": 129.0131, "MEAN_ANOMALY": 232.0713, "EPHEMERIS_TYPE": 0, "CLASSIFICATION_TYPE": "U", "NORAD_CAT_ID": 30401, "ELEMENT_SET_NO": 999, "REV_AT_EPOCH": 98296, "BSTAR": 0.00021121363, "MEAN_MOTION_DOT": 5.12e-06, "MEAN_MOTION_DDOT": 0}, "tle": {"line1": "1 30401U 99025ADQ 25346.20899649  .00000512  00000+0  21121-3 0  9997", "line2": "2 30401  98.9472 223.0855 0107860 129.0131 232.0713 14.27990865982966"}}, "geometry": {"type": "Point", "coordinates": [44.204802106977844, 0.9591401597020967]}}, {"type": "Feature", "properties": {"norad_id": 30403, "name": "FENGYUN 1C DEB", "group": "fengyun-1c-debris", "lat": -21.203609852967563, "lon": 69.1392620505589, "alt_km": 786.0184500816922, "timestamp": "2025-12-13T03:42:11.549081+00:00", "meta": {"OBJECT_NAME": "FENGYUN 1C DEB", "OBJECT_ID": "1999-025ADS", "EPOCH": "2025-12-12T04:09:11.805984", "MEAN_MOTION": 14.21525126, "ECCENTRICITY": 0.00746659, "INCLINATION": 99.0598, "RA_OF_ASC_NODE": 64.5837, "ARG_OF_PERICENTER": 24.6635, "MEAN_ANOMALY": 335.8082, "EPHEMERIS_TYPE": 0, "CLASSIFICATION_TYPE": "U", "NORAD_CAT_ID": 30403, "ELEMENT_SET_NO": 999, "REV_AT_EPOCH": 96798, "BSTAR": 0.0028896902, "MEAN_MOTION_DOT": 6.467e-05, "MEAN_MOTION_DDOT": 0}, "tle": {"line1": "1 30403U 99025ADS 25346.17305331  .00006467  00000+0  28897-2 0  9996", "line2": "2 30403  99.0598  64.5837 0074665  24.6635 335.8082 14.21525126967986"}}, "geometry": {"type": "Point", "coordinates": [69.1392620505589, -21.203609852967563]}}, {"type": "Feature", "properties": {"norad_id": 30404, "name": "FENGYUN 1C DEB", "group": "fengyun-1c-debris", "lat": -77.97964841043817, "lon": 133.4611735787547, "alt_km": 1353.9975909566738, "timestamp": "2025-12-13T03:42:11.549091+00:00", "meta": {"OBJECT_NAME": "FENGYUN 1C DEB", "OBJECT_ID": "1999-025ADT", "EPOCH": "2025-12-09T17:22:00.970176", "MEAN_MOTION": 13.34340356, "ECCENTRICITY": 0.03762169, "INCLINATION": 99.8341, "RA_OF_ASC_NODE": 75.6132, "ARG_OF_PERICENTER": 143.8851, "MEAN_ANOMALY": 218.8323, "EPHEMERIS_TYPE": 0, "CLASSIFICATION_TYPE": "U", "NORAD_CAT_ID": 30404, "ELEMENT_SET_NO": 999, "REV_AT_EPOCH": 57996, "BSTAR": 0.0018981594, "MEAN_MOTION_DOT": 1.373e-05, "MEAN_MOTION_DDOT": 0}, "tle": {"line1": "1 30404U 99025ADT 25343.72362234  .00001373  00000+0  18982-2 0  9995", "line2": "2 30404  99.8341  75.6132 0376216 143.8851 218.8323 13.34340356579961"}}, "geometry": {"type": "Point", "coordinates": [133.4611735787547, -77.97964841043817]}}, {"type": "Feature", "properties": {"norad_id": 30405, "name": "FENGYUN 1C DEB", "group": "fengyun-1c-debris", "lat": 12.229596972084181, "lon": -96.93462612351014, "alt_km": 760.861658913399, "timestamp": "2025-12-13T03:42:11.549101+00:00", "meta": {"OBJECT_NAME": "FENGYUN 1C DEB", "OBJECT_ID": "1999-025ADU", "EPOCH": "2025-12-12T05:12:56.262240", "MEAN_MOTION": 14.28911949, "ECCENTRICITY": 0.00514373, "INCLINATION": 98.7936, "RA_OF_ASC_NODE": 80.1981, "ARG_OF_PERICENTER": 155.2881, "MEAN_ANOMALY": 234.8631, "EPHEMERIS_TYPE": 0, "CLASSIFICATION_TYPE": "U", "NORAD_CAT_ID": 30405, "ELEMENT_SET_NO": 999, "REV_AT_EPOCH": 97388, "BSTAR": 0.0028279829, "MEAN_MOTION_DOT": 7.206e-05, "MEAN_MOTION_DDOT": 0}, "tle": {"line1": "1 30405U 99025ADU 25346.21731785  .00007206  00000+0  28280-2 0  9997", "line2": "2 30405  98.7936  80.1981 0051437 155.2881 234.8631 14.28911949973883"}}, "geometry": {"type": "Point", "coordinates": [-96.93462612351014, 12.229596972084181]}}, {"type": "Feature", "properties": {"norad_id": 30406, "name": "FENGYUN 1C DEB", "group": "fengyun-1c-debris", "lat": 26.513769304221864, "lon": -126.5715388263671, "alt_km": 851.0899422156263, "timestamp": "2025-12-13T03:42:11.549111+00:00", "meta": {"OBJECT_NAME": "FENGYUN 1C DEB", "OBJECT_ID": "1999-025ADV", "EPOCH": "2025-12-11T16:22:32.129184", "MEAN_MOTION": 13.59206195, "ECCENTRICITY": 0.02831487, "INCLINATION": 98.62, "RA_OF_ASC_NODE": 236.4716, "ARG_OF_PERICENTER": 2.5626, "MEAN_ANOMALY": 24.0647, "EPHEMERIS_TYPE": 0, "CLASSIFICATION_TYPE": "U", "NORAD_CAT_ID": 30406, "ELEMENT_SET_NO": 999, "REV_AT_EPOCH": 93152, "BSTAR": 0.0032737459, "MEAN_MOTION_DOT": 3.101e-05, "MEAN_MOTION_DDOT": 0}, "tle": {"line1": "1 30406U 99025ADV 25345.68231631  .00003101  00000+0  32737-2 0  9995", "line2": "2 30406  98.6200 236.4716 0283148   2.5626  24.0647 13.59206195931520"}}, "geometry": {"type": "Point", "coordinates": [-126.5715388263671, 26.513769304221864]}}, {"type": "Feature", "properties": {"norad_id": 30409, "name": "FENGYUN 1C DEB", "group": "fengyun-1c-debris", "lat": -13.260418250955704, "lon": 152.49837789128597, "alt_km": 1005.7327880054272, "timestamp": "2025-12-13T03:42:11.549121+00:00", "meta": {"OBJECT_NAME": "FENGYUN 1C DEB", "OBJECT_ID": "1999-025ADY", "EPOCH": "2025-12-11T12:00:31.438368", "MEAN_MOTION": 14.03727175, "ECCENTRICITY": 0.01679179, "INCLINATION": 98.4733, "RA_OF_ASC_NODE": 332.969, "ARG_OF_PERICENTER": 9.0682, "MEAN_ANOMALY": 111.1398, "EPHEMERIS_TYPE": 0, "CLASSIFICATION_TYPE": "U", "NORAD_CAT_ID": 30409, "ELEMENT_SET_NO": 999, "REV_AT_EPOCH": 96412, "BSTAR": 0.0015851875, "MEAN_MOTION_DOT": 2.787e-05, "MEAN_MOTION_DDOT": 0}, "tle": {"line1": "1 30409U 99025ADY 25345.50036387  .00002787  00000+0  15852-2 0  9998", "line2": "2 30409  98.4733 332.9690 0167917   9.0682 111.1398 14.03727175964123"}}, "geometry": {"type": "Point", "coordinates": [152.49837789128597, -13.260418250955704]}}]}